Unnamed: 0,NORAD_CAT_ID,OBJECT_NAME,EPOCH,MEAN_MOTION,ECCENTRICITY,INCLINATION,RA_OF_ASC_NODE,ARG_OF_PERICENTER,MEAN_ANOMALY,BSTAR,MEAN_MOTION_DOT,MEAN_MOTION_DDOT,TLE_LINE1,TLE_LINE2,SEMIMAJOR_AXIS,PERIOD,APOGEE,PERIGEE,alltitude
2922901,48481,STARLINK-2706,2022-06-04 21:04:59.450880,15.06400527,0.0001709,53.0552,249.1791,49.2734,310.8403,0.00014726,1.913e-05,0,1 48481U 21040BF  22155.87846117  .00001913  00000-0  14726-3 0  9996,2 48481  53.0552 249.1791 0001709  49.2734 310.8403 15.06400527 59278,6925.347,95.592,548.395,546.028,547.3156744103226
2921072,48481,STARLINK-2706,2022-06-04 13:07:17.206752,15.06402698,0.0001745,53.0552,250.6681,51.8092,308.3054,2.275e-05,5.7e-07,0,1 48481U 21040BF  22155.54672693  .00000057  00000-0  22750-4 0  9991,2 48481  53.0552 250.6681 0001745  51.8092 308.3054 15.06402698 59229,6925.34,95.592,548.414,545.997,547.3351686926309
2921071,48481,STARLINK-2706,2022-06-04 13:07:17.206752,15.06402698,0.0001745,53.0552,250.6681,51.8092,308.3054,2.275e-05,5.7e-07,0,1 48481U 21040BF  22155.54672693  .00000057  00000-0  22750-4 0  9991,2 48481  53.0552 250.6681 0001745  51.8092 308.3054 15.06402698 60502,6925.34,95.592,548.414,545.997,547.3351686926309
2916588,48481,STARLINK-2706,2022-06-03 21:11:52.830240,15.06415128,0.000174,53.0551,253.6466,52.8822,307.2326,2.7089e-05,1.22e-06,0,1 48481U 21040BF  22154.88325035  .00000122  00000-0  27089-4 0  9995,2 48481  53.0551 253.6466 0001740  52.8822 307.2326 15.06415128 59120,6925.302,95.591,548.372,545.962,547.3218061603944
2914130,48481,STARLINK-2706,2022-06-03 13:14:11.528448,15.0641056,0.0001716,53.0552,255.1356,56.7759,303.3394,1.2487e-05,-9.6e-07,0,1 48481U 21040BF  22154.55152232 -.00000096  00000-0  12487-4 0  9993,2 48481  53.0552 255.1356 0001716  56.7759 303.3394 15.06410560 60355,6925.316,95.591,548.37,545.993,547.4095037334637
2914131,48481,STARLINK-2706,2022-06-03 13:14:11.528448,15.0641056,0.0001716,53.0552,255.1356,56.7759,303.3394,1.2487e-05,-9.6e-07,0,1 48481U 21040BF  22154.55152232 -.00000096  00000-0  12487-4 0  9993,2 48481  53.0552 255.1356 0001716  56.7759 303.3394 15.06410560 59072,6925.316,95.591,548.37,545.993,547.4095037334637
2908538,48481,STARLINK-2706,2022-06-02 18:07:43.709664,15.06402145,0.0001745,53.0545,258.7098,52.4762,307.6386,-0.00012782,-2.185e-05,0,1 48481U 21040BF  22153.75536701 -.00002185  00000-0 -12782-3 0  9990,2 48481  53.0545 258.7098 0001745  52.4762 307.6386 15.06402145 58959,6925.342,95.592,548.415,545.999,547.3517026883159
2906995,48481,STARLINK-2706,2022-06-02 13:21:06.612192,15.06397568,0.0001792,53.0541,259.6036,53.8832,306.2323,-8.7536e-05,-1.585e-05,0,1 48481U 21040BF  22153.55632653 -.00001585  00000-0 -87536-4 0  9994,2 48481  53.0541 259.6036 0001792  53.8832 306.2323 15.06397568 60201,6925.356,95.592,548.462,545.98,547.3694565391121
2906996,48481,STARLINK-2706,2022-06-02 13:21:06.612192,15.06397568,0.0001792,53.0541,259.6036,53.8832,306.2323,-8.7536e-05,-1.585e-05,0,1 48481U 21040BF  22153.55632653 -.00001585  00000-0 -87536-4 0  9994,2 48481  53.0541 259.6036 0001792  53.8832 306.2323 15.06397568 58927,6925.356,95.592,548.462,545.98,547.3694565391121
2904643,48481,STARLINK-2706,2022-06-02 00:36:47.534688,15.06407055,0.000175,53.0546,261.9861,51.0262,309.0883,0.00021242,2.884e-05,0,1 48481U 21040BF  22153.02555017  .00002884  00000-0  21242-3 0  9996,2 48481  53.0546 261.9861 0001750  51.0262 309.0883 15.06407055 60125,6925.327,95.592,548.404,545.98,547.3091675926041
2902174,48481,STARLINK-2706,2022-06-01 19:50:10.909824,15.06396887,0.0001703,53.0552,262.8794,51.8158,308.2984,0.00025042,3.45e-05,0,1 48481U 21040BF  22152.82651516  .00003450  00000-0  25042-3 0  9996,2 48481  53.0552 262.8794 0001703  51.8158 308.2984 15.06396887 58813,6925.358,95.592,548.402,546.044,547.3764387920578
2901894,48481,STARLINK-2706,2022-06-01 18:14:38.491872,15.06395648,0.0001642,53.0552,263.1772,53.2591,306.8548,0.00022869,3.126e-05,0,1 48481U 21040BF  22152.76016773  .00003126  00000-0  22869-3 0  9993,2 48481  53.0552 263.1772 0001642  53.2591 306.8548 15.06395648 60088,6925.362,95.592,548.364,546.09,547.4259428890434
2900221,48481,STARLINK-2706,2022-06-01 10:16:55.842240,15.06404141,0.0001563,53.055,264.6658,45.5287,314.5829,0.00028775,4.008e-05,0,1 48481U 21040BF  22152.42842410  .00004008  00000-0  28775-3 0  9993,2 48481  53.0550 264.6658 0001563  45.5287 314.5829 15.06404141 60035,6925.336,95.592,548.283,546.118,547.3246320395868
2892030,48481,STARLINK-2706,2022-05-31 00:50:37.208832,15.06390121,0.0001696,53.0555,270.9211,53.2728,306.8417,-2.6128e-05,-6.71e-06,0,1 48481U 21040BF  22151.03515288 -.00000671  00000-0 -26128-4 0  9994,2 48481  53.0555 270.9211 0001696  53.2728 306.8417 15.06390121 58540,6925.379,95.593,548.418,546.069,547.4185602724189
2892029,48481,STARLINK-2706,2022-05-31 00:50:37.208832,15.06390121,0.0001696,53.0555,270.9211,53.2728,306.8417,-2.6128e-05,-6.71e-06,0,1 48481U 21040BF  22151.03515288 -.00000671  00000-0 -26128-4 0  9994,2 48481  53.0555 270.9211 0001696  53.2728 306.8417 15.06390121 59822,6925.379,95.593,548.418,546.069,547.4185602724189
2889532,48481,STARLINK-2706,2022-05-30 18:28:28.934400,15.06388201,0.0001928,53.0549,272.1128,49.8955,310.2203,-0.00016358,-2.717e-05,0,1 48481U 21040BF  22150.76976960 -.00002717  00000-0 -16358-3 0  9997,2 48481  53.0549 272.1128 0001928  49.8955 310.2203 15.06388201 58509,6925.385,95.593,548.585,545.915,547.2656185818349
2889531,48481,STARLINK-2706,2022-05-30 18:28:28.934400,15.06388201,0.0001928,53.0549,272.1128,49.8955,310.2203,-0.00016358,-2.717e-05,0,1 48481U 21040BF  22150.76976960 -.00002717  00000-0 -16358-3 0  9997,2 48481  53.0549 272.1128 0001928  49.8955 310.2203 15.06388201 59780,6925.385,95.593,548.585,545.915,547.2656185818349
2886994,48481,STARLINK-2706,2022-05-30 12:06:19.121472,15.06379545,0.0001869,53.0563,273.3042,58.4912,301.6259,-0.00023758,-3.817e-05,0,1 48481U 21040BF  22150.50438798 -.00003817  00000-0 -23758-3 0  9995,2 48481  53.0563 273.3042 0001869  58.4912 301.6259 15.06379545 58467,6925.411,95.593,548.571,545.982,547.4760103902124
2886993,48481,STARLINK-2706,2022-05-30 12:06:19.121472,15.06379545,0.0001869,53.0563,273.3042,58.4912,301.6259,-0.00023758,-3.817e-05,0,1 48481U 21040BF  22150.50438798 -.00003817  00000-0 -23758-3 0  9995,2 48481  53.0563 273.3042 0001869  58.4912 301.6259 15.06379545 59749,6925.411,95.593,548.571,545.982,547.4760103902124
2881758,48481,STARLINK-2706,2022-05-29 18:35:21.577920,15.0639091,0.0001715,53.0557,276.5807,48.5632,311.5504,9.8275e-05,1.182e-05,0,1 48481U 21040BF  22149.77454928  .00001182  00000-0  98275-4 0  9993,2 48481  53.0557 276.5807 0001715  48.5632 311.5504 15.06390910 58353,6925.376,95.593,548.429,546.054,547.3314950247124
2881757,48481,STARLINK-2706,2022-05-29 18:35:21.577920,15.0639091,0.0001715,53.0557,276.5807,48.5632,311.5504,9.8275e-05,1.182e-05,0,1 48481U 21040BF  22149.77454928  .00001182  00000-0  98275-4 0  9993,2 48481  53.0557 276.5807 0001715  48.5632 311.5504 15.06390910 59635,6925.376,95.593,548.429,546.054,547.3314950247124
2879819,48481,STARLINK-2706,2022-05-29 13:48:43.385760,15.06403763,0.0001608,53.0551,277.4727,48.5484,311.5643,6.6335e-05,7.07e-06,0,1 48481U 21040BF  22149.57550215  .00000707  00000-0  66335-4 0  9991,2 48481  53.0551 277.4727 0001608  48.5484 311.5643 15.06403763 58326,6925.337,95.592,548.316,546.088,547.34342542462
2878995,48481,STARLINK-2706,2022-05-29 12:13:11.195904,15.06400676,0.0001675,53.0553,277.7718,49.5808,310.5327,0.00011414,1.419e-05,0,1 48481U 21040BF  22149.50915736  .00001419  00000-0  11414-3 0  9995,2 48481  53.0553 277.7718 0001675  49.5808 310.5327 15.06400676 59594,6925.346,95.592,548.371,546.051,547.3364758646738
2874193,48481,STARLINK-2706,2022-05-28 18:42:15.101280,15.06406395,0.0001646,53.0553,281.0471,49.3826,310.7306,0.00010542,1.289e-05,0,1 48481U 21040BF  22148.77934145  .00001289  00000-0  10542-3 0  9994,2 48481  53.0553 281.0471 0001646  49.3826 310.7306 15.06406395 58204,6925.329,95.592,548.334,546.054,547.3282980441595
2874192,48481,STARLINK-2706,2022-05-28 18:42:15.101280,15.06406395,0.0001646,53.0553,281.0471,49.3826,310.7306,0.00010542,1.289e-05,0,1 48481U 21040BF  22148.77934145  .00001289  00000-0  10542-3 0  9994,2 48481  53.0553 281.0471 0001646  49.3826 310.7306 15.06406395 59485,6925.329,95.592,548.334,546.054,547.3282980441595
2871870,48481,STARLINK-2706,2022-05-28 12:20:05.667936,15.06407019,0.0001663,53.0556,282.2396,48.889,311.2243,0.00013048,1.663e-05,0,1 48481U 21040BF  22148.51395449  .00001663  00000-0  13048-3 0  9994,2 48481  53.0556 282.2396 0001663  48.8890 311.2243 15.06407019 58165,6925.327,95.592,548.344,546.04,547.3154960526474
2866925,48481,STARLINK-2706,2022-05-27 18:49:10.480512,15.06398325,0.0001451,53.0557,285.516,52.5547,307.5574,4.4261e-05,3.78e-06,0,1 48481U 21040BF  22147.78414908  .00000378  00000-0  44261-4 0  9998,2 48481  53.0557 285.5160 0001451  52.5547 307.5574 15.06398325 58059,6925.354,95.592,548.224,546.214,547.4871331047477
2865643,48481,STARLINK-2706,2022-05-27 14:02:33.148896,15.06402092,0.0001472,53.0547,286.4104,51.3637,308.7483,6.108e-05,6.28e-06,0,1 48481U 21040BF  22147.58510589  .00000628  00000-0  61080-4 0  9994,2 48481  53.0547 286.4104 0001472  51.3637 308.7483 15.06402092 59304,6925.342,95.592,548.227,546.188,547.4474994673174
2865644,48481,STARLINK-2706,2022-05-27 14:02:33.148896,15.06402092,0.0001472,53.0547,286.4104,51.3637,308.7483,6.108e-05,6.28e-06,0,1 48481U 21040BF  22147.58510589  .00000628  00000-0  61080-4 0  9994,2 48481  53.0547 286.4104 0001472  51.3637 308.7483 15.06402092 58022,6925.342,95.592,548.227,546.188,547.4474994673174
2862012,48481,STARLINK-2706,2022-05-27 01:18:18.466560,15.06160175,0.0001572,53.0555,288.7904,40.1078,320.0027,0.0036401,0.00054003,0,1 48481U 21040BF  22147.05438040  .00054003  00000-0  36401-2 0  9990,2 48481  53.0555 288.7904 0001572  40.1078 320.0027 15.06160175 59227,6926.084,95.607,549.037,546.86,547.9952774905888
